[Satellite]
VERSION=1.1
NAME=IT-SPINS
NICKNAME=IT-SPINS
TLE1=1 49017U 21013G   22335.66958011  .00011369  00000-0  39334-3 0  9994
TLE2=2 49017  51.5972 317.4830 0007489 333.5882  26.4716 15.30320894 79353
STATUS=0
